"AnyID","address","city","state","zip","country"
10010,"568 Shore Airport Rd","Ticonderoga","NY","12883","USA"
10205,"601 County Rd 78","Selma","AL","36703","USA"
10240,"3737 Hwy 3 N","Redwood","MS","39156","USA"
10241,"9978 FM Rd 3129","Queen City","TX","75572","USA"
10259,"700 S Kaminski St","GEORGETOWN","SC","29440","USA"
10268,"1202 HIGHWAY 509","MANSFIELD","LA","71052","USA"
10618,"375 MUSCOGEE RD","PENSACOLA","FL","32533","USA"
10660,"4278 MIKE PADGETT HWY","AUGUSTA","GA","30906","USA"
10661,"865 John L. Riegel Rd","RIEGELWOOD","NC","28456","USA"
10769,"4001 Mc Cords Ferry Rd","EASTOVER","SC","29044","USA"
10776,"34040 UNION CAMP DR","FRANKLIN","VA","23851","USA"
10867,"100 Jensen Rd","PRATTVILLE","AL","36067","USA"
10899,"1201 W LATHROP AVE","SAVANNAH","GA","31415","USA"
11808,"2434 NEW SAVANNAH RD","AUGUSTA","GA","30913","USA"
17106,"7600 HIGHWAY 10 W","PINE HILL","AL","36769","USA"
17110,"4537 HIGHWAY 480","CAMPTI","LA","71411","USA"
17113,"890 INTERNATIONAL PAPER LN","VALLIANT","OK","74764","USA"
17115,"801 42ND ST","SPRINGFIELD","OR","97478","USA"
17444,"238 MAYS BRIDGE RD SW","ROME","GA","30165","USA"
17445,"401 AVENUE U","BOGALUSA","LA","70427","USA"
17448,"1750 IP Way","ORANGE","TX","77632","USA"
17620,"2449 STAGECOACH RD","FLINT RIVER","GA","31068","USA"
17621,"1785 WEYERHAEUSER RD","NEW BERN","NC","28563","USA"
17622,"4335 CARSON RD","COLUMBUS","MS","39701","USA"
17623,"1 BONNYBRIDGE RD","PORT WENTWORTH","GA","31407","USA"
19311,"115 Gordon McIntyre Rd","GORDON","GA","31031","USA"
19315,"1380 Morris Rd","Madison","GA","30650","USA"
19320,"1950 Hard Cash Rd NW","DEWY ROSE","GA","30634","USA"
19322,"5690 Hwy 486","Natchitoches","LA","71411","USA"
19324,"20 HILLCREST LN","COLUMBIA","MS","39429","USA"
19655,"177 Strother Rd","EASTOVER","SC","29379","USA"
19744,"598 Plywood Plant Rd","SILVERSTREET","SC","29145","USA"
19745,"5956 S. Fraser St","GEORGETOWN","SC","29440","USA"
19760,"35080 BUTLER FARM RD","FRANKLIN","VA","23851","USA"
19764,"8510 River Rd","Selma","AL","36701","USA"
19766,"Red Cliff Rd","Creola","AL","36525","USA"
19777,"2837 River Rd.","WAYNESBORO","GA","29440","USA"
19855,"635 John L Riegel Road","CAPE FEAR","NC","28456","USA"
19865,"151 County Road 35","Evergreen","AL","36401","USA"
19880,"F.M. Rd 3129","Queen City","TX","75572","USA"
19882,"1202 Hwy 509","Mansfield","LA","71052","USA"
19884,"200 Jensen Rd","Prattville","AL","36067","USA"
19992,"1075 Woodyard Rd","OLLA","LA","71465","USA"
21444,"2806 Williamson Way","SHREVEPORT","LA","71118","USA"
